NORAD_CAT_ID,OBJECT_NAME,OBJECT_TYPE,EPOCH,MEAN_MOTION,ECCENTRICITY,INCLINATION,RA_OF_ASC_NODE,ARG_OF_PERICENTER,MEAN_ANOMALY,BSTAR,MEAN_MOTION_DOT,MEAN_MOTION_DDOT,TLE_LINE0,TLE_LINE1,TLE_LINE2,SEMIMAJOR_AXIS,PERIOD,APOGEE,PERIGEE,DECAYED
54774.0,STARLINK-5454,PAYLOAD,2023-05-05 22:00:00,15.10519056,0.0001221,53.2163,12.4358,82.2389,110.2767,-0.0051938,-0.00085829,0.0,0 STARLINK-5454,1 54774U 22175S   23125.91667824 -.00085829  00000-0 -51938-2 0  9992,2 54774  53.2163  12.4358 0001221  82.2389 110.2767 15.10519056  1301,6912.753,95.331,535.462,533.774,0.0
54774.0,STARLINK-5454,PAYLOAD,2023-05-06 08:00:01,15.10471673,0.0001169,53.2164,10.5601,75.0398,224.4341,-0.0010582,-0.00017863,0.0,0 STARLINK-5454,1 54774U 22175S   23126.33334491 -.00017863  00000-0 -10582-2 0  9993,2 54774  53.2164  10.5601 0001169  75.0398 224.4341 15.10471673 21213,6912.898,95.334,535.571,533.954,0.0
54774.0,STARLINK-5454,PAYLOAD,2023-05-06 16:00:00,15.1046409,0.0001189,53.2166,9.0589,84.6712,228.3499,0.0025328,0.00042108,0.0,0 STARLINK-5454,1 54774U 22175S   23126.66667824  .00042108  00000-0  25328-2 0  9990,2 54774  53.2166   9.0589 0001189  84.6712 228.3499 15.10464090  1301,6912.921,95.335,535.608,533.964,0.0
54774.0,STARLINK-5454,PAYLOAD,2023-05-07 00:00:00,15.10515177,0.0001142,53.2166,7.5605,76.2731,250.3289,-0.0051654,-0.00085357,0.0,0 STARLINK-5454,1 54774U 22175S   23127.00001157 -.00085357  00000-0 -51654-2 0  9996,2 54774  53.2166   7.5605 0001142  76.2731 250.3289 15.10515177 21318,6912.765,95.332,535.419,533.84,0.0
54774.0,STARLINK-5454,PAYLOAD,2023-05-07 20:47:33,15.10472162,0.0001304,53.2172,3.6592,104.816,255.2977,-6.8635e-05,-1.435e-05,0.0,0 STARLINK-5454,1 54774U 22175S   23127.86636287 -.00001435  00000-0 -68635-4 0  9992,2 54774  53.2172   3.6592 0001304 104.8160 255.2977 15.10472162 21449,6912.896,95.334,535.662,533.86,0.0
54774.0,STARLINK-5454,PAYLOAD,2023-05-08 01:33:24,15.10475856,0.0001148,53.2178,2.7657,74.6472,285.4647,-7.1816e-05,-1.488e-05,0.0,0 STARLINK-5454,1 54774U 22175S   23128.06486604 -.00001488  00000-0 -71816-4 0  9994,2 54774  53.2178   2.7657 0001148  74.6472 285.4647 15.10475856 23638,6912.885,95.334,535.543,533.956,0.0
54774.0,STARLINK-5454,PAYLOAD,2023-05-10 01:11:51,15.10480023,8.5e-05,53.2177,353.8322,93.3876,266.7214,7.1257e-05,8.94e-06,0.0,0 STARLINK-5454,1 54774U 22175S   23130.04990319  .00000894  00000-0  71257-4 0  9995,2 54774  53.2177 353.8322 0000850  93.3876 266.7214 15.10480023 23938,6912.872,95.334,535.325,534.149,0.0
54774.0,STARLINK-5454,PAYLOAD,2023-05-10 18:39:58,15.10483639,0.0001247,53.219,350.5614,113.3574,246.755,-0.0002057,-3.716e-05,0.0,0 STARLINK-5454,1 54774U 22175S   23130.77776343 -.00003716  00000-0 -20570-3 0  9993,2 54774  53.2190 350.5614 0001247 113.3574 246.7550 15.10483639 21889,6912.861,95.334,535.588,533.864,0.0
54774.0,STARLINK-5454,PAYLOAD,2023-05-10 21:50:32,15.10480454,0.0001101,53.2184,349.9648,108.3366,251.7746,-7.0231e-05,-1.462e-05,0.0,0 STARLINK-5454,1 54774U 22175S   23130.91009509 -.00001462  00000-0 -70231-4 0  9998,2 54774  53.2184 349.9648 0001101 108.3366 251.7746 15.10480454 24061,6912.871,95.334,535.497,533.975,0.0
54774.0,STARLINK-5454,PAYLOAD,2023-05-11 21:39:46,15.1047493,0.0001018,53.2175,345.4968,102.9345,257.1761,-5.0092e-05,-1.126e-05,0.0,0 STARLINK-5454,1 54774U 22175S   23131.90262345 -.00001126  00000-0 -50092-4 0  9997,2 54774  53.2175 345.4968 0001018 102.9345 257.1761 15.10474930 22057,6912.888,95.334,535.456,534.049,0.0
54774.0,STARLINK-5454,PAYLOAD,2023-05-12 18:18:26,15.10477316,8.75e-05,53.2168,341.6226,99.2963,260.8129,-1.4425e-05,-5.32e-06,0.0,0 STARLINK-5454,1 54774U 22175S   23132.76280799 -.00000532  00000-0 -14425-4 0  9995,2 54774  53.2168 341.6226 0000875  99.2963 260.8129 15.10477316 24342,6912.88,95.334,535.35,534.14,0.0
54774.0,STARLINK-5454,PAYLOAD,2023-05-12 21:29:00,15.10481213,9.58e-05,53.217,341.0269,91.1072,269.0031,1.1102e-05,-1.08e-06,0.0,0 STARLINK-5454,1 54774U 22175S   23132.89514144 -.00000108  00000-0  11102-4 0  9990,2 54774  53.2170 341.0269 0000958  91.1072 269.0031 15.10481213 22207,6912.868,95.334,535.396,534.071,0.0
54774.0,STARLINK-5454,PAYLOAD,2023-05-13 21:18:13,15.10482789,8.09e-05,53.2167,336.5604,89.3695,270.7391,3.432e-05,2.79e-06,0.0,0 STARLINK-5454,1 54774U 22175S   23133.88766188  .00000279  00000-0  34320-4 0  9992,2 54774  53.2167 336.5604 0000809  89.3695 270.7391 15.10482789 24513,6912.864,95.334,535.288,534.169,0.0
54774.0,STARLINK-5454,PAYLOAD,2023-05-14 19:32:11,15.10476928,0.0001002,53.2177,332.3898,80.6043,279.5063,-4.7269e-05,-1.079e-05,0.0,0 STARLINK-5454,1 54774U 22175S   23134.81402369 -.00001079  00000-0 -47269-4 0  9991,2 54774  53.2177 332.3898 0001002  80.6043 279.5063 15.10476928 24656,6912.881,95.334,535.439,534.054,0.0
54774.0,STARLINK-5454,PAYLOAD,2023-05-15 06:39:10,15.1047707,0.0001013,53.2182,330.306,84.1653,275.9455,-2.2155e-05,-6.61e-06,0.0,0 STARLINK-5454,1 54774U 22175S   23135.27719933 -.00000661  00000-0 -22155-4 0  9993,2 54774  53.2182 330.3060 0001013  84.1653 275.9455 15.10477070 24721,6912.881,95.334,535.446,534.046,0.0
54774.0,STARLINK-5454,PAYLOAD,2023-05-15 19:21:25,15.10488078,0.0001092,53.2179,327.9234,83.6337,276.478,-8.5562e-05,-1.717e-05,0.0,0 STARLINK-5454,1 54774U 22175S   23135.80654064 -.00001717  00000-0 -85562-4 0  9999,2 54774  53.2179 327.9234 0001092  83.6337 276.4780 15.10488078 22648,6912.847,95.333,535.467,533.958,0.0
54774.0,STARLINK-5454,PAYLOAD,2023-05-16 12:49:31,15.10471467,0.0001022,53.2163,324.6467,78.7723,281.3384,-2.1615e-05,-6.52e-06,0.0,0 STARLINK-5454,1 54774U 22175S   23136.53439758 -.00000652  00000-0 -21615-4 0  9997,2 54774  53.2163 324.6467 0001022  78.7723 281.3384 15.10471467 22751,6912.898,95.334,535.47,534.057,0.0
54774.0,STARLINK-5454,PAYLOAD,2023-05-16 19:10:39,15.10475304,0.0001033,53.216,323.4553,80.5456,279.5653,1.353e-05,-6.7e-07,0.0,0 STARLINK-5454,1 54774U 22175S   23136.79906663 -.00000067  00000-0  13530-4 0  9995,2 54774  53.2160 323.4553 0001033  80.5456 279.5653 15.10475304 24953,6912.886,95.334,535.466,534.037,0.0
54774.0,STARLINK-5454,PAYLOAD,2023-05-17 17:24:36,15.1047636,0.0001057,53.2163,319.2876,84.0919,276.0194,-2.2157e-05,-6.61e-06,0.0,0 STARLINK-5454,1 54774U 22175S   23137.72542249 -.00000661  00000-0 -22157-4 0  9991,2 54774  53.2163 319.2876 0001057  84.0919 276.0194 15.10476360 22937,6912.883,95.334,535.479,534.018,0.0
54774.0,STARLINK-5454,PAYLOAD,2023-05-17 20:35:10,15.10475729,0.0001208,53.2168,318.6922,88.2912,271.8219,3.63e-05,3.12e-06,0.0,0 STARLINK-5454,1 54774U 22175S   23137.85775680  .00000312  00000-0  36300-4 0  9998,2 54774  53.2168 318.6922 0001208  88.2912 271.8219 15.10475729 25116,6912.885,95.334,535.585,533.915,0.0
54774.0,STARLINK-5454,PAYLOAD,2023-05-18 12:28:00,15.1047039,9.72e-05,53.217,315.7143,83.245,276.8653,-3.6015e-05,-8.92e-06,0.0,0 STARLINK-5454,1 54774U 22175S   23138.51944511 -.00000892  00000-0 -36015-4 0  9991,2 54774  53.2170 315.7143 0000972  83.2450 276.8653 15.10470390 25218,6912.901,95.335,535.438,534.094,0.0
54774.0,STARLINK-5454,PAYLOAD,2023-05-18 18:49:07,15.10478648,0.0001223,53.2171,314.5236,88.2958,271.8175,2.3542e-05,9.9e-07,0.0,0 STARLINK-5454,1 54774U 22175S   23138.78411081  .00000099  00000-0  23542-4 0  9999,2 54774  53.2171 314.5236 0001223  88.2958 271.8175 15.10478648 23099,6912.876,95.334,535.587,533.896,0.0
54774.0,STARLINK-5454,PAYLOAD,2023-05-18 20:24:24,15.10478425,0.0001227,53.2174,314.2261,86.803,273.3103,2.1408e-05,6.4e-07,0.0,0 STARLINK-5454,1 54774U 22175S   23138.85027920  .00000064  00000-0  21408-4 0  9993,2 54774  53.2174 314.2261 0001227  86.8030 273.3103 15.10478425 25268,6912.877,95.334,535.59,533.894,0.0
54774.0,STARLINK-5454,PAYLOAD,2023-05-19 18:38:22,15.10468523,0.0001003,53.2173,310.0571,87.2897,272.821,-4.5663e-05,-1.052e-05,0.0,0 STARLINK-5454,1 54774U 22175S   23139.77664474 -.00001052  00000-0 -45663-4 0  9995,2 54774  53.2173 310.0571 0001003  87.2897 272.8210 15.10468523 23240,6912.907,95.335,535.465,534.079,0.0
54774.0,STARLINK-5454,PAYLOAD,2023-05-20 04:10:03,15.10478156,0.0001072,53.2168,308.2712,87.0329,273.0787,-1.7075e-05,-5.77e-06,0.0,0 STARLINK-5454,1 54774U 22175S   23140.17364694 -.00000577  00000-0 -17075-4 0  9999,2 54774  53.2168 308.2712 0001072  87.0329 273.0787 15.10478156 23306,6912.878,95.334,535.484,534.002,0.0
54774.0,STARLINK-5454,PAYLOAD,2023-05-20 18:27:34,15.10486686,0.0001006,53.2163,305.591,89.1114,270.9994,6.7813e-05,8.37e-06,0.0,0 STARLINK-5454,1 54774U 22175S   23140.76915125  .00000837  00000-0  67813-4 0  9997,2 54774  53.2163 305.5910 0001006  89.1114 270.9994 15.10486686 25555,6912.852,95.334,535.412,534.021,0.0
54774.0,STARLINK-5454,PAYLOAD,2023-05-21 13:30:59,15.10461375,8.86e-05,53.2158,302.0184,94.7417,265.3677,-0.00011647,-2.23e-05,0.0,0 STARLINK-5454,1 54774U 22175S   23141.56319314 -.00002230  00000-0 -11647-3 0  9998,2 54774  53.2158 302.0184 0000886  94.7417 265.3677 15.10461375 25674,6912.929,95.335,535.406,534.181,0.0
54774.0,STARLINK-5454,PAYLOAD,2023-05-21 15:06:16,15.10461383,7.75e-05,53.2161,301.7205,96.5738,263.5343,-0.00011505,-2.206e-05,0.0,0 STARLINK-5454,1 54774U 22175S   23141.62936137 -.00002206  00000-0 -11505-3 0  9999,2 54774  53.2161 301.7205 0000775  96.5738 263.5343 15.10461383 23522,6912.929,95.335,535.33,534.258,0.0
54774.0,STARLINK-5454,PAYLOAD,2023-05-21 18:16:50,15.10466156,8.87e-05,53.2163,301.1242,92.014,268.0955,-7.7085e-05,-1.575e-05,0.0,0 STARLINK-5454,1 54774U 22175S   23141.76169467 -.00001575  00000-0 -77085-4 0  9992,2 54774  53.2163 301.1242 0000887  92.0140 268.0955 15.10466156 25705,6912.914,95.335,535.393,534.166,0.0
54774.0,STARLINK-5454,PAYLOAD,2023-05-22 03:48:31,15.1047483,8.75e-05,53.2168,299.3365,90.391,269.7183,-2.7271e-05,-7.46e-06,0.0,0 STARLINK-5454,1 54774U 22175S   23142.15869778 -.00000746  00000-0 -27271-4 0  9999,2 54774  53.2168 299.3365 0000875  90.3910 269.7183 15.10474830 23603,6912.888,95.334,535.358,534.148,0.0
